10P/Tempel,e,12.0396,117.8076,195.5018,3.061009,0.1840379,0.53838288,273.4409,12/10.0/2019,2000,g  5.0,10.0
# From MPC105240
11P/Tempel-Swift-LINEAR,e,14.4296,238.9696,167.8102,3.287411,0.1653572,0.57731487,301.7851,12/10.0/2019,2000,g 17.0,4.0
# From  27, 604
12P/Pons-Brooks,e,74.0591,255.6956,199.0733,17.05797,0.0139898,0.95425563,337.6941,12/10.0/2019,2000,g  5.0,6.0
# From  27, 604
13P/Olbers,e,44.6274,85.8343,64.6013,16.65798,0.0144968,0.92979993,335.8584,12/10.0/2019,2000,g  5.0,6.0
# From MPC100283
14P/Wolf,e,27.8998,202.0948,158.9813,4.259643,0.1121100,0.35641982,82.7425,12/10.0/2019,2000,g  5.5,12.0
# From MPC 92276
15P/Finlay,e,6.7973,13.7208,347.8446,3.503505,0.1502969,0.71686013,272.5774,12/10.0/2019,2000,g 12.0,4.0
# From MPC 92276
16P/Brooks,e,3.0047,139.0018,245.1424,3.659275,0.1408029,0.48822568,290.3479,12/10.0/2019,2000,g  7.5,10.0
# From MPC114607
17P/Holmes,e,19.0225,326.6634,24.5793,3.635079,0.1422110,0.42825217,297.6972,12/10.0/2019,2000,g 10.0,6.0
# From MPC 92984
19P/Borrelly,e,29.7689,74.6509,351.8123,3.597649,0.1444362,0.64050821,246.8171,12/10.0/2019,2000,g  4.5,10.0
# From MPC111773
21P/Giacobini-Zinner,e,32.0029,195.3774,172.8489,3.496510,0.1507482,0.71049626,68.6961,12/10.0/2019,2000,g  9.0,6.0
# From MPC 94283
22P/Kopff,e,4.7414,120.8359,162.9378,3.443678,0.1542305,0.54881578,232.1535,12/10.0/2019,2000,g  3.0,10.4
# From MPC 14747
23P/Brorsen-Metcalf,e,19.1637,312.2982,128.9455,16.95783,0.0141139,0.97089776,0.0000,08/18.3223/1989,2000,g 10.0,6.0
# From MPC110085
24P/Schaumasse,e,11.7323,79.5920,57.7531,4.070967,0.1199935,0.70687142,90.2766,12/10.0/2019,2000,g  6.5,14.0
# From MPC 94674
26P/Grigg-Skjellerup,e,22.4480,211.5343,2.1945,3.013777,0.1883811,0.64080589,81.8018,12/10.0/2019,2000,g 12.0,16.0
# From MPC 78188
27P/Crommelin,e,29.1088,250.5729,196.0185,9.193558,0.0353573,0.91790446,108.1706,12/10.0/2019,2000,g 12.0,8.0
# From MPC114607
28P/Neujmin,e,14.3116,346.3469,347.4397,6.967465,0.0535910,0.77353623,335.4557,12/10.0/2019,2000,g  8.5,6.0
# From MPEC 2019-VB6
29P/Schwassmann-Wachmann,e,9.3671,312.3831,47.9607,6.030081,0.0665609,0.04364106,18.2908,12/10.0/2019,2000,g  4.0,4.0
# From MPC110085
30P/Reinmuth,e,8.2820,119.0883,13.2096,3.752542,0.1355863,0.51032366,113.7155,12/10.0/2019,2000,g  9.5,6.0
# From MPC108597
31P/Schwassmann-Wachmann,e,4.5472,114.1126,18.3299,4.242958,0.1127719,0.19270080,17.7060,12/10.0/2019,2000,g  5.0,8.0
# From MPC 92276
32P/Comas Sola,e,9.9444,57.6663,53.3024,4.498960,0.1032847,0.55665641,194.2647,12/10.0/2019,2000,g  6.5,8.0
# From MPC 84320
33P/Daniel,e,22.3677,66.3740,20.6444,4.079118,0.1196340,0.45394562,144.7560,12/10.0/2019,2000,g 10.0,12.0
# From  15, 452
35P/Herschel-Rigollet,e,64.466,356.222,29.141,28.5704,0.006454,0.9733147,0.000,12/25.8496/2091,2000,g  9.0,4.0
# From MPC105240
36P/Whipple,e,9.9529,181.8638,200.7535,4.129815,0.1174379,0.26832038,339.6176,12/10.0/2019,2000,g  8.5,6.0
# From MPEC 2018-HA5
37P/Forbes,e,8.9564,314.5708,330.0501,3.458472,0.1532420,0.53418650,89.6129,12/10.0/2019,2000,g 10.5,4.8
# From MPEC 2018-S50
38P/Stephan-Oterma,e,18.3533,77.9982,359.5632,11.26920,0.0260534,0.85905834,10.2667,12/10.0/2019,2000,g  3.5,12.0
# From MPC115887
39P/Oterma,e,1.5610,299.2542,94.7629,7.412337,0.0488395,0.22350184,299.0644,12/10.0/2019,2000,g  7.0,6.0
# From MPC100283
40P/Vaisala,e,11.4720,133.7935,47.4634,4.949647,0.0895041,0.63032117,165.7407,12/10.0/2019,2000,g  5.5,12.0
# From MPC105240
41P/Tuttle-Giacobini-Kresak,e,9.2220,141.0099,62.2557,3.085581,0.1818439,0.66053820,176.6713,12/10.0/2019,2000,g 10.0,16.0
# From MPC 94283
42P/Neujmin,e,3.9878,150.2065,147.1370,4.873055,0.0916225,0.58536030,156.2062,12/10.0/2019,2000,g 13.0,6.0
# From MPC102956
43P/Wolf-Harrington,e,9.5186,244.8245,223.7468,4.295485,0.1107097,0.44405057,131.5493,12/10.0/2019,2000,g  8.0,6.0
# From MPC 89313
44P/Reinmuth,e,5.8982,286.4824,58.1219,3.689084,0.1390997,0.42688312,239.5666,12/10.0/2019,2000,g  8.3,6.0
# From MPC103849
45P/Honda-Mrkos-Pajdusakova,e,4.3265,87.6923,327.9915,3.049024,0.1851240,0.81796206,199.3608,12/10.0/2019,2000,g 13.5,8.0
# From MPC114607
46P/Wirtanen,e,11.7449,82.1530,356.3656,3.091891,0.1812875,0.65856121,65.6435,12/10.0/2019,2000,g 14.0,6.0
# From NK 2718
47P/Ashbrook-Jackson,e,13.0314,356.9374,357.6056,4.125836,0.1176078,0.31763421,107.3572,12/10.0/2019,2000,g  9.0,4.0
# From MPEC 2015-M77
48P/Johnson,e,12.2077,110.1272,216.6001,3.499934,0.1505270,0.42724120,72.9565,12/10.0/2019,2000,g  9.0,4.0
# From MPEC 2015-M77
49P/Arend-Rigaux,e,19.0442,118.8063,332.9467,3.569446,0.1461514,0.59906411,74.9192,12/10.0/2019,2000,g  9.0,4.0
# From MPEC 2015-S97
50P/Arend,e,19.0961,355.1534,49.3729,4.089750,0.1191678,0.52845970,167.1800,12/10.0/2019,2000,g  9.5,6.0
# From NK 3014
51P-A/Harrington,e,5.4247,83.6935,269.1911,3.709877,0.1379319,0.54278415,218.0059,12/10.0/2019,2000,g 10.0,8.0
# From NK 3013
51P-D/Harrington,e,5.4254,83.6782,269.2301,3.708870,0.1379881,0.54271592,218.2453,12/10.0/2019,2000,g 16.0,8.0
# From MPC 88330
52P/Harrington-Abell,e,10.2307,336.8378,139.6032,3.861839,0.1298712,0.53958082,273.5817,12/10.0/2019,2000,g 13.5,6.0
# From MPC100283
53P/Van Biesbroeck,e,6.6074,148.8536,134.3534,5.423133,0.0780421,0.55235200,102.8787,12/10.0/2019,2000,g  7.7,4.8
# From MPC 89011
54P/de Vico-Swift-NEAT,e,6.0598,358.8191,1.7706,3.793978,0.1333711,0.42511888,129.1636,12/10.0/2019,2000,g  9.0,4.0
# From MPC 31070
55P/Tempel-Tuttle,e,162.3594,235.4044,172.5589,10.34542,0.0296198,0.90686915,236.2633,12/10.0/2019,2000,g  9.0,4.0
# From MPC101100
56P/Slaughter-Burnham,e,8.1551,345.9759,44.0570,5.073607,0.0862440,0.50649713,106.9346,12/10.0/2019,2000,g  8.5,6.0
# From MPC 98565
57P/du Toit-Neujmin-Delporte,e,2.8496,188.7839,115.1899,3.447800,0.1539540,0.50061959,255.7040,12/10.0/2019,2000,g 12.5,6.0
# From NK 778
58P/Jackson-Neujmin,e,13.1000,159.0731,200.4534,4.083939,0.1194222,0.66270690,340.0519,12/10.0/2019,2000,g  9.0,4.0
# From MPC111774
59P/Kearns-Kwee,e,9.3411,312.8292,127.6555,4.491139,0.1035546,0.47490917,46.5350,12/10.0/2019,2000,g  7.0,6.0
# From MPEC 2015-M77
60P/Tsuchinshan,e,3.6066,267.5819,216.6186,3.512069,0.1497475,0.53767708,54.4638,12/10.0/2019,2000,g  9.0,4.0
# From MPEC 2015-Q71
61P/Shajn-Schaldach,e,5.9991,162.9928,221.9281,3.684132,0.1393803,0.42383151,213.6603,12/10.0/2019,2000,g  6.0,10.0
# From MPC109147
62P/Tsuchinshan,e,9.7389,90.1421,29.9660,3.424557,0.1555240,0.61208659,115.6447,12/10.0/2019,2000,g  8.0,10.0
# From MPC 84320
63P/Wild,e,19.7460,358.0133,169.1694,5.603644,0.0743016,0.64933147,181.0653,12/10.0/2019,2000,g 10.5,6.0
# From MPC111774
64P/Swift-Gehrels,e,8.9500,299.9987,97.1228,4.456232,0.1047737,0.68748463,42.0261,12/10.0/2019,2000,g  9.5,12.0
# From MPC104795
65P/Gunn,e,9.1842,62.0227,213.7301,3.883033,0.1288093,0.25000688,100.9099,12/10.0/2019,2000,g  5.0,6.0
# From MPC109147
66P/du Toit,e,18.6670,21.8861,257.2621,6.059993,0.0660687,0.78698632,37.6456,12/10.0/2019,2000,g  9.0,4.0
# From MPC 89011
67P/Churyumov-Gerasimenko,e,3.9265,37.4719,21.3918,3.447183,0.1539953,0.65480146,253.6264,12/10.0/2019,2000,g 11.0,4.0
# From MPC 75716
68P/Klemola,e,11.1109,175.0822,153.0593,4.948587,0.0895328,0.63750217,2.7720,12/10.0/2019,2000,g 10.0,4.0
# From MPC114607
69P/Taylor,e,22.0330,104.8306,343.5436,3.890680,0.1284298,0.41313828,34.2423,12/10.0/2019,2000,g  9.5,12.0
# From MPC 92276
70P/Kojima,e,6.5982,119.2678,1.8715,3.674913,0.1399051,0.45324957,262.8513,12/10.0/2019,2000,g 11.0,6.0
# From MPC107051
71P/Clark,e,9.4429,59.4426,208.9946,3.137997,0.1773067,0.49427390,158.2515,12/10.0/2019,2000,g  9.8,6.0
# From MPC 89011
72P/Denning-Fujikawa,e,10.9249,26.6921,346.6661,4.311994,0.1100745,0.81782805,218.5909,12/10.0/2019,2000,g 17.5,10.0
# From MPC106348
73P/Schwassmann-Wachmann,e,11.2363,69.6550,199.4265,3.093111,0.1811802,0.68575126,180.7737,12/10.0/2019,2000,g 11.5,6.0
# From MPC106348
73P-T/Schwassmann-Wachmann,e,11.2384,69.6576,199.4080,3.094671,0.1810433,0.68595454,180.6379,12/10.0/2019,2000,g 11.5,6.0
# From MPC102956
74P/Smirnova-Chernykh,e,6.6461,77.0528,88.9423,4.183436,0.1151873,0.15244123,77.2243,12/10.0/2019,2000,g  5.0,6.0
# From MPC118097
76P/West-Kohoutek-Ikemura,e,30.4569,84.1251,0.0215,3.475140,0.1521408,0.53820654,6.8245,12/10.0/2019,2000,g  8.0,12.0
# From MPC100283
77P/Longmore,e,24.3305,14.8054,196.8675,3.619718,0.1431172,0.35269964,186.8553,12/10.0/2019,2000,g  7.0,8.0
# From MPEC 2016-U66
78P/Gehrels,e,6.2484,210.5428,192.6721,3.740566,0.1362379,0.46167378,34.2412,12/10.0/2019,2000,g  9.0,4.0
# From MPC 94675
79P/du Toit-Hartley,e,3.1480,280.5250,281.8281,2.942847,0.1952327,0.61911935,88.3860,12/10.0/2019,2000,g 16.0,4.0
# From MPC 89313
80P/Peters-Hartley,e,29.9478,259.8219,339.2473,4.024269,0.1220881,0.59925437,226.4076,12/10.0/2019,2000,g  9.0,8.0
# From MPC105241
81P/Wild,e,3.2372,136.1103,41.7250,3.449806,0.1538197,0.53737913,190.5212,12/10.0/2019,2000,g  7.0,6.0
# From MPC 75717
82P/Gehrels,e,1.1283,239.3157,226.9898,4.138137,0.1170838,0.12189904,62.1479,12/10.0/2019,2000,g  5.0,8.0
# From MPC105241
84P/Giclas,e,7.5522,108.1745,281.5460,3.548129,0.1474704,0.51552692,333.9300,12/10.0/2019,2000,g  9.5,8.0
# From MPC109147
86P/Wild,e,15.4763,72.3786,179.2892,3.604565,0.1440207,0.37266758,246.1968,12/10.0/2019,2000,g 11.0,6.0
# From MPC105241
87P/Bus,e,2.6023,181.8624,24.9196,3.438105,0.1546057,0.38923617,336.6202,12/10.0/2019,2000,g  7.2,10.0
# From MPC114608
88P/Howell,e,4.3838,56.6864,235.9116,3.105353,0.1801100,0.56423104,307.4743,12/10.0/2019,2000,g 11.0,6.0
# From MPC100283
89P/Russell,e,12.0722,41.4267,250.2372,3.753870,0.1355143,0.40865831,147.6583,12/10.0/2019,2000,g 11.5,6.0
# From MPC107051
90P/Gehrels,e,9.6384,13.2215,29.1460,6.057396,0.0661112,0.50945346,59.7778,12/10.0/2019,2000,g  8.5,6.0
# From MPC105241
91P/Russell,e,14.0915,247.8299,354.7557,3.890935,0.1284172,0.33061159,316.9506,12/10.0/2019,2000,g  7.5,6.0
# From MPEC 2014-J58
92P/Sanguin,e,19.4692,181.4013,163.7027,5.346376,0.0797287,0.66017984,139.0397,12/10.0/2019,2000,g 12.0,6.0
# From NK 2707
